ONEWEB-0346             
1 49212U 21083AC  24037.79680249  .00000042  00000+0  73073-4 0  9992
2 49212  87.9246 146.8955 0001536 123.1688 236.9592 13.18684616116455
ONEWEB-0348             
1 49213U 21083AD  24037.68365056 -.00000248  00000+0 -64282-3 0  9998
2 49213  87.9151  85.9214 0001222 107.8469 252.2798 13.20771171123093
ONEWEB-0352             
1 49216U 21083AG  24037.76075186 -.00000136  00000+0 -40733-3 0  9993
2 49216  87.9010 131.7181 0001908  99.2977 260.8368 13.13470055117946
ONEWEB-0354             
1 49217U 21083AH  24037.62684241  .00000094  00000+0  20032-3 0  9998
2 49217  87.9152  85.9181 0001643  88.5198 271.6123 13.20771642123081
ONEWEB-0357             
1 49219U 21083AK  24037.62368066  .00000097  00000+0  20716-3 0  9996
2 49219  87.9148  85.9413 0001786  96.8183 263.3153 13.20771934123085
